NORAD_CAT_ID,OBJECT_NAME,OBJECT_TYPE,EPOCH,MEAN_MOTION,ECCENTRICITY,INCLINATION,RA_OF_ASC_NODE,ARG_OF_PERICENTER,MEAN_ANOMALY,BSTAR,MEAN_MOTION_DOT,MEAN_MOTION_DDOT,TLE_LINE0,TLE_LINE1,TLE_LINE2,SEMIMAJOR_AXIS,PERIOD,APOGEE,PERIGEE,DECAYED
52862.0,STARLINK-4010,PAYLOAD,2022-10-15 14:00:01,15.08809578,0.0001318,53.215,195.6486,86.4973,184.3492,0.0028729,0.00045693,0.0,0 STARLINK-4010,1 52862U 22062AJ  22288.58334491  .00045693  00000-0  28729-2 0  9991,2 52862  53.2150 195.6486 0001318  86.4973 184.3492 15.08809578 19057,6917.973000000001,95.439,540.75,538.927,0.0
52862.0,STARLINK-4010,PAYLOAD,2022-10-15 22:00:01,15.08835689,0.000149,53.215,194.1532,83.7026,198.7787,-0.001739,-0.00027854,0.0,0 STARLINK-4010,1 52862U 22062AJ  22288.91668981 -.00027854  00000-0 -17390-2 0  9995,2 52862  53.2150 194.1532 0001490  83.7026 198.7787 15.08835689 19107,6917.894,95.438,540.789,538.7280000000002,0.0
52862.0,STARLINK-4010,PAYLOAD,2022-10-16 06:00:00,15.08837399,0.0001488,53.2172,192.6651,68.9668,225.1411,-3.1088000000000005e-05,-7.83e-06,0.0,0 STARLINK-4010,1 52862U 22062AJ  22289.25001157 -.00000783  00000-0 -31088-4 0  9993,2 52862  53.2172 192.6651 0001488  68.9668 225.1411 15.08837399 19154,6917.888000000001,95.438,540.783,538.724,0.0
52862.0,STARLINK-4010,PAYLOAD,2022-10-16 14:00:01,15.08834438,0.0001462,53.2174,191.1669,73.7091,231.9935,0.00027415,4.077e-05,0.0,0 STARLINK-4010,1 52862U 22062AJ  22289.58334491  .00004077  00000-0  27415-3 0  9995,2 52862  53.2174 191.1669 0001462  73.7091 231.9935 15.08834438  1300,6917.897,95.438,540.774,538.751,0.0
52862.0,STARLINK-4010,PAYLOAD,2022-10-16 22:00:00,15.08819682,0.0001584,53.2162,189.6674,86.3623,230.826,0.0095621,0.00155178,0.0,0 STARLINK-4010,1 52862U 22062AJ  22289.91667824  .00155178  00000-0  95621-2 0  9993,2 52862  53.2162 189.6674 0001584  86.3623 230.8260 15.08819682  1304,6917.941999999999,95.439,540.903,538.712,0.0
52862.0,STARLINK-4010,PAYLOAD,2022-10-17 06:00:00,15.08854597,0.0001489,53.2151,188.1688,75.3468,253.4474,-0.0014971,-0.00024045,0.0,0 STARLINK-4010,1 52862U 22062AJ  22290.25001157 -.00024045  00000-0 -14971-2 0  9992,2 52862  53.2151 188.1688 0001489  75.3468 253.4474 15.08854597 19301,6917.8359999999975,95.437,540.731,538.6709999999998,0.0
52862.0,STARLINK-4010,PAYLOAD,2022-10-17 14:00:01,15.08812538,0.0001517,53.2156,186.671,86.29700000000004,254.1286,0.0044643999999999,0.0007143,0.0,0 STARLINK-4010,1 52862U 22062AJ  22290.58334491  .00071430  00000-0  44644-2 0  9996,2 52862  53.2156 186.6710 0001517  86.2970 254.1286 15.08812538  1305,6917.964,95.439,540.879,538.78,0.0
52862.0,STARLINK-4010,PAYLOAD,2022-10-17 22:00:00,15.08881481,0.0001563,53.2161,185.1762,81.0166,270.9953,-0.0029728,-0.00047343,0.0,0 STARLINK-4010,1 52862U 22062AJ  22290.91667824 -.00047343  00000-0 -29728-2 0  9996,2 52862  53.2161 185.1762 0001563  81.0166 270.9953 15.08881481  1303,6917.754,95.435,540.7,538.5369999999998,0.0
52862.0,STARLINK-4010,PAYLOAD,2022-10-18 00:00:00,15.08873047,0.0001601,53.2163,184.8034,78.6805,6.2399,-0.002535,-0.00040443,0.0,0 STARLINK-4010,1 52862U 22062AJ  22291.00001157 -.00040443  00000-0 -25350-2 0  9999,2 52862  53.2163 184.8034 0001601  78.6805   6.2399 15.08873047 19412,6917.779,95.435,540.752,538.5369999999998,0.0
52862.0,STARLINK-4010,PAYLOAD,2022-10-18 14:00:01,15.08792784,0.0001333,53.2159,182.1808,83.9226,291.2962,0.0039714,0.00063403,0.0,0 STARLINK-4010,1 52862U 22062AJ  22291.58334491  .00063403  00000-0  39714-2 0  9990,2 52862  53.2159 182.1808 0001333  83.9226 291.2962 15.08792784  1304,6918.025,95.441,540.812,538.9680000000002,0.0
52862.0,STARLINK-4010,PAYLOAD,2022-10-18 22:00:00,15.08839833,0.0001431999999999,53.2162,180.6858,77.4047,309.3748,-0.00082065,-0.00013325,0.0,0 STARLINK-4010,1 52862U 22062AJ  22291.91667824 -.00013325  00000-0 -82065-3 0  9994,2 52862  53.2162 180.6858 0001432  77.4047 309.3748 15.08839833  1305,6917.880999999999,95.438,540.737,538.755,0.0
52862.0,STARLINK-4010,PAYLOAD,2022-10-19 14:00:01,15.08842274,0.0001385,53.2163,177.6917,84.7169,325.2632,0.0016174,0.00025548,0.0,0 STARLINK-4010,1 52862U 22062AJ  22292.58334491  .00025548  00000-0  16174-2 0  9994,2 52862  53.2163 177.6917 0001385  84.7169 325.2632 15.08842274  1303,6917.873000000001,95.437,540.697,538.78,0.0
52862.0,STARLINK-4010,PAYLOAD,2022-10-19 22:00:00,15.08848008,0.0001520999999999,53.2165,176.1968,79.0593,342.528,-0.00086757,-0.00014072,0.0,0 STARLINK-4010,1 52862U 22062AJ  22292.91667824 -.00014072  00000-0 -86757-3 0  9997,2 52862  53.2165 176.1968 0001521  79.0593 342.5280 15.08848008  1307,6917.856,95.437,540.773,538.669,0.0
52862.0,STARLINK-4010,PAYLOAD,2022-10-20 08:00:01,15.08851679,0.0001415,53.2166,174.3279,82.4247,83.6815,-0.0015792,-0.00025341,0.0,0 STARLINK-4010,1 52862U 22062AJ  22293.33334491 -.00025341  00000-0 -15792-2 0  9996,2 52862  53.2166 174.3279 0001415  82.4247  83.6815 15.08851679 19774,6917.845,95.437,540.689,538.731,0.0
52862.0,STARLINK-4010,PAYLOAD,2022-10-20 14:00:01,15.08831683,0.0001411,53.2169,173.2062,92.3938,352.4148,0.0010077,0.00015782,0.0,0 STARLINK-4010,1 52862U 22062AJ  22293.58334491  .00015782  00000-0  10077-2 0  9990,2 52862  53.2169 173.2062 0001411  92.3938 352.4148 15.08831683  1307,6917.906,95.438,540.747,538.795,0.0
52862.0,STARLINK-4010,PAYLOAD,2022-10-20 22:00:00,15.0886652,0.0001414,53.2168,171.7093,81.4565,14.9504,-0.0015484,-0.00024864,0.0,0 STARLINK-4010,1 52862U 22062AJ  22293.91667824 -.00024864  00000-0 -15484-2 0  9996,2 52862  53.2168 171.7093 0001414  81.4565  14.9504 15.08866520  1305,6917.799,95.436,540.643,538.686,0.0
52862.0,STARLINK-4010,PAYLOAD,2022-10-21 14:00:01,15.0882438,0.0001244,53.2162,168.7145,91.469,28.1516,0.0029146,0.00046383,0.0,0 STARLINK-4010,1 52862U 22062AJ  22294.58334491  .00046383  00000-0  29146-2 0  9999,2 52862  53.2162 168.7145 0001244  91.4690  28.1516 15.08824380  1302,6917.928000000001,95.439,540.654,538.933,0.0
52862.0,STARLINK-4010,PAYLOAD,2022-10-21 22:00:00,15.08884275,0.000133,53.2169,167.2225,87.9146,43.2981,-0.0089928,-0.00140793,0.0,0 STARLINK-4010,1 52862U 22062AJ  22294.91667824 -.00140793  00000-0 -89928-2 0  9991,2 52862  53.2169 167.2225 0001330  87.9146  43.2981 15.08884275  1307,6917.745,95.435,540.53,538.69,0.0
52862.0,STARLINK-4010,PAYLOAD,2022-10-22 08:00:01,15.08842386,0.0001137,53.2157,165.3477,83.5256,152.1691,-0.0015482999999999,-0.00024846,0.0,0 STARLINK-4010,1 52862U 22062AJ  22295.33334491 -.00024846  00000-0 -15483-2 0  9994,2 52862  53.2157 165.3477 0001137  83.5256 152.1691 15.08842386 20071,6917.873000000001,95.437,540.525,538.952,0.0
52862.0,STARLINK-4010,PAYLOAD,2022-10-22 14:00:01,15.08822859,0.0001177999999999,53.2156,164.2248,90.5732,63.8187,0.0024936999999999,0.00039604,0.0,0 STARLINK-4010,1 52862U 22062AJ  22295.58334491  .00039604  00000-0  24937-2 0  9991,2 52862  53.2156 164.2248 0001178  90.5732  63.8187 15.08822859  1302,6917.933000000001,95.439,540.613,538.9830000000002,0.0
52862.0,STARLINK-4010,PAYLOAD,2022-10-22 22:00:00,15.08849826,0.0001235,53.2154,162.7301,80.4415,85.5468,0.00012061,1.633e-05,0.0,0 STARLINK-4010,1 52862U 22062AJ  22295.91667824  .00001633  00000-0  12061-3 0  9994,2 52862  53.2154 162.7301 0001235  80.4415  85.5468 15.08849826  1309,6917.85,95.437,540.57,538.861,0.0
52862.0,STARLINK-4010,PAYLOAD,2022-10-23 00:00:02,15.08838534,0.0001259,53.2155,162.3562,77.959,180.9971,0.0019813,0.00031384,0.0,0 STARLINK-4010,1 52862U 22062AJ  22296.00002315  .00031384  00000-0  19813-2 0  9990,2 52862  53.2155 162.3562 0001259  77.9590 180.9971 15.08838534 20175,6917.885,95.438,540.621,538.879,0.0
52862.0,STARLINK-4010,PAYLOAD,2022-10-23 14:00:01,15.0883459,0.0001317,53.2151,159.7355,89.1763,100.0434,0.0022101,0.00035056,0.0,0 STARLINK-4010,1 52862U 22062AJ  22296.58334491  .00035056  00000-0  22101-2 0  9990,2 52862  53.2151 159.7355 0001317  89.1763 100.0434 15.08834590  1302,6917.897,95.438,540.673,538.851,0.0
52862.0,STARLINK-4010,PAYLOAD,2022-10-23 22:00:00,15.08848528,0.0001349,53.215,158.2407,78.7617,122.0627,-0.0025554,-0.00040737,0.0,0 STARLINK-4010,1 52862U 22062AJ  22296.91667824 -.00040737  00000-0 -25554-2 0  9995,2 52862  53.2150 158.2407 0001349  78.7617 122.0627 15.08848528 20316,6917.854,95.437,540.653,538.786,0.0
52862.0,STARLINK-4010,PAYLOAD,2022-10-24 14:00:01,15.08770032,0.0001473,53.215,155.2461,87.2075,136.7724,0.0026175,0.00041535,0.0,0 STARLINK-4010,1 52862U 22062AJ  22297.58334491  .00041535  00000-0  26175-2 0  9995,2 52862  53.2150 155.2461 0001473  87.2075 136.7724 15.08770032  1306,6918.094,95.442,540.9780000000002,538.94,0.0
52862.0,STARLINK-4010,PAYLOAD,2022-10-24 22:00:00,15.0879541,0.0001496,53.2149,153.7515,77.4952,158.0123,0.0019844999999999,0.00031398,0.0,0 STARLINK-4010,1 52862U 22062AJ  22297.91667824  .00031398  00000-0  19845-2 0  9993,2 52862  53.2149 153.7515 0001496  77.4952 158.0123 15.08795410  1304,6918.017,95.44,540.9169999999998,538.847,0.0
52862.0,STARLINK-4010,PAYLOAD,2022-10-25 00:00:00,15.08793428,0.0001476,53.2151,153.3777,75.9783,252.4178,0.0030635,0.00048743,0.0,0 STARLINK-4010,1 52862U 22062AJ  22298.00001157  .00048743  00000-0  30635-2 0  9997,2 52862  53.2151 153.3777 0001476  75.9783 252.4178 15.08793428 20471,6918.023,95.441,540.909,538.867,0.0
52862.0,STARLINK-4010,PAYLOAD,2022-10-25 14:00:01,15.08820446,0.0001441999999999,53.2151,150.7569,86.0881,172.5481,0.0016359,0.00025829,0.0,0 STARLINK-4010,1 52862U 22062AJ  22298.58334491  .00025829  00000-0  16359-2 0  9997,2 52862  53.2151 150.7569 0001442  86.0881 172.5481 15.08820446  1307,6917.94,95.439,540.803,538.808,0.0
52862.0,STARLINK-4010,PAYLOAD,2022-10-25 22:00:01,15.08825106,0.0001515,53.215,149.2621,76.1349,194.1503,0.00066438,0.00010297,0.0,0 STARLINK-4010,1 52862U 22062AJ  22298.91668981  .00010297  00000-0  66438-3 0  9995,2 52862  53.2150 149.2621 0001515  76.1349 194.1503 15.08825106  1301,6917.926,95.438,540.839,538.743,0.0
